NORAD_CAT_ID,OBJECT_NAME,OBJECT_TYPE,EPOCH,MEAN_MOTION,ECCENTRICITY,INCLINATION,RA_OF_ASC_NODE,ARG_OF_PERICENTER,MEAN_ANOMALY,BSTAR,MEAN_MOTION_DOT,MEAN_MOTION_DDOT,TLE_LINE0,TLE_LINE1,TLE_LINE2,SEMIMAJOR_AXIS,PERIOD,APOGEE,PERIGEE,DECAYED
49736.0,STARLINK-3148,PAYLOAD,2023-09-25 13:38:27,15.08848293,0.0001622,53.2161,211.848,84.1678,275.9499,0.00024374,3.594e-05,0.0,0 STARLINK-3148,1 49736U 21115N   23268.56837960  .00003594  00000-0  24374-3 0  9998,2 49736  53.2161 211.8480 0001622  84.1678 275.9499 15.08848293100259,6917.855,95.437,540.842,538.598,0.0
49736.0,STARLINK-3148,PAYLOAD,2023-09-26 05:32:18,15.08865464,0.0001681,53.2169,208.8724,89.3085,270.81,0.00044945,6.877e-05,0.0,0 STARLINK-3148,1 49736U 21115N   23269.23077023  .00006877  00000-0  44945-3 0  9992,2 49736  53.2169 208.8724 0001681  89.3085 270.8100 15.08865464101464,6917.803,95.436,540.83,538.505,0.0
49736.0,STARLINK-3148,PAYLOAD,2023-09-27 02:12:20,15.08838592,0.0001571,53.2164,205.0116,81.7969,278.3201,-7.5073e-05,-1.483e-05,0.0,0 STARLINK-3148,1 49736U 21115N   23270.09190009 -.00001483  00000-0 -75073-4 0  9995,2 49736  53.2164 205.0116 0001571  81.7969 278.3201 15.08838592101599,6917.885,95.438,540.836,538.663,0.0
49736.0,STARLINK-3148,PAYLOAD,2023-09-28 02:03:08,15.08827535,0.000144,53.2162,200.5542,91.7822,268.3336,-0.00022323,-3.838e-05,0.0,0 STARLINK-3148,1 49736U 21115N   23271.08551459 -.00003838  00000-0 -22323-3 0  9990,2 49736  53.2162 200.5542 0001440  91.7822 268.3336 15.08827535101744,6917.918,95.438,540.78,538.787,0.0
49736.0,STARLINK-3148,PAYLOAD,2023-09-28 05:13:54,15.08827944,0.0001666,53.2183,199.9497,100.9512,259.1668,-0.00018836,-3.284e-05,0.0,0 STARLINK-3148,1 49736U 21115N   23271.21799247 -.00003284  00000-0 -18836-3 0  9993,2 49736  53.2183 199.9497 0001666 100.9512 259.1668 15.08827944100655,6917.917,95.438,540.935,538.63,0.0
49736.0,STARLINK-3148,PAYLOAD,2023-09-29 05:04:41,15.08850042,0.0001189,53.2166,195.494,110.002,250.11,0.00023862,3.513e-05,0.0,0 STARLINK-3148,1 49736U 21115N   23272.21158715  .00003513  00000-0  23862-3 0  9991,2 49736  53.2166 195.4940 0001189 110.0020 250.1100 15.08850042101913,6917.85,95.437,540.537,538.892,0.0
49736.0,STARLINK-3148,PAYLOAD,2023-09-30 01:44:41,15.08854839,0.0001171,53.216,191.6304,100.9895,259.1229,0.00028824,4.304e-05,0.0,0 STARLINK-3148,1 49736U 21115N   23273.07270422  .00004304  00000-0  28824-3 0  9998,2 49736  53.2160 191.6304 0001171 100.9895 259.1229 15.08854839100938,6917.835,95.437,540.51,538.89,0.0
49736.0,STARLINK-3148,PAYLOAD,2023-09-30 11:17:00,15.08847985,0.0001098,53.2161,189.8447,90.2315,269.8803,0.00013714,1.896e-05,0.0,0 STARLINK-3148,1 49736U 21115N   23273.47014490  .00001896  00000-0  13714-3 0  9998,2 49736  53.2161 189.8447 0001098  90.2315 269.8803 15.08847985102103,6917.856,95.437,540.481,538.961,0.0
49736.0,STARLINK-3148,PAYLOAD,2023-09-30 17:38:33,15.08832152,0.0002208,53.2168,188.6548,76.9702,283.1537,-0.00023271,-3.989e-05,0.0,0 STARLINK-3148,1 49736U 21115N   23273.73511426 -.00003989  00000-0 -23271-3 0  9994,2 49736  53.2168 188.6548 0002208  76.9702 283.1537 15.08832152102141,6917.904,95.438,541.297,538.242,0.0
49736.0,STARLINK-3148,PAYLOAD,2023-10-01 11:07:48,15.08835069,0.0001506,53.2164,185.3841,82.5658,277.5505,1.8551e-05,7e-08,0.0,0 STARLINK-3148,1 49736U 21115N   23274.46375423  .00000007  00000-0  18551-4 0  9992,2 49736  53.2164 185.3841 0001506  82.5658 277.5505 15.08835069101141,6917.895,95.438,540.802,538.719,0.0
49736.0,STARLINK-3148,PAYLOAD,2023-10-02 01:26:16,15.0885299,0.0001479,53.2161,182.7083,82.0388,278.0772,0.00084591,0.00013205,0.0,0 STARLINK-3148,1 49736U 21115N   23275.05991364  .00013205  00000-0  84591-3 0  9996,2 49736  53.2161 182.7083 0001479  82.0388 278.0772 15.08852990102348,6917.841,95.437,540.729,538.683,0.0
49736.0,STARLINK-3148,PAYLOAD,2023-10-02 10:58:35,15.08850209,0.0001699,53.2156,180.9242,79.3346,280.7837,0.00055397,8.542e-05,0.0,0 STARLINK-3148,1 49736U 21115N   23275.45735447  .00008542  00000-0  55397-3 0  9998,2 49736  53.2156 180.9242 0001699  79.3346 280.7837 15.08850209102406,6917.849,95.437,540.89,538.539,0.0
49736.0,STARLINK-3148,PAYLOAD,2023-10-03 04:27:49,15.08854021,0.0001705,53.2155,177.6529,78.8003,281.318,0.00056718,8.754e-05,0.0,0 STARLINK-3148,1 49736U 21115N   23276.18599146  .00008754  00000-0  56718-3 0  9996,2 49736  53.2155 177.6529 0001705  78.8003 281.3180 15.08854021102514,6917.838,95.437,540.882,538.523,0.0
49736.0,STARLINK-3148,PAYLOAD,2023-10-03 10:49:22,15.08842646,0.0001427,53.2143,176.4629,93.6736,266.4419,0.00028459,4.245e-05,0.0,0 STARLINK-3148,1 49736U 21115N   23276.45095279  .00004245  00000-0  28459-3 0  9996,2 49736  53.2143 176.4629 0001427  93.6736 266.4419 15.08842646102551,6917.872,95.437,540.724,538.75,0.0
49736.0,STARLINK-3148,PAYLOAD,2023-10-03 21:57:04,15.08841744,0.0001981,53.2167,174.3804,96.4733,263.6485,0.00027005,4.013e-05,0.0,0 STARLINK-3148,1 49736U 21115N   23276.91463560  .00004013  00000-0  27005-3 0  9998,2 49736  53.2167 174.3804 0001981  96.4733 263.6485 15.08841744101517,6917.875,95.437,541.11,538.37,0.0
49736.0,STARLINK-3148,PAYLOAD,2023-10-04 10:40:09,15.08844935,0.000164,53.2151,172.0022,94.7508,265.3671,0.0002783,4.144e-05,0.0,0 STARLINK-3148,1 49736U 21115N   23277.44455485  .00004144  00000-0  27830-3 0  9995,2 49736  53.2151 172.0022 0001640  94.7508 265.3671 15.08844935102703,6917.865,95.437,540.865,538.596,0.0
49736.0,STARLINK-3148,PAYLOAD,2023-10-04 23:23:14,15.08849924,0.0001629,53.2153,169.6227,94.6759,265.4419,0.00048794,7.488e-05,0.0,0 STARLINK-3148,1 49736U 21115N   23277.97447280  .00007488  00000-0  48794-3 0  9993,2 49736  53.2153 169.6227 0001629  94.6759 265.4419 15.08849924101677,6917.85,95.437,540.842,538.588,0.0
49736.0,STARLINK-3148,PAYLOAD,2023-10-05 10:30:56,15.08834322,0.0001482,53.2167,167.5419,93.7529,266.3633,9.4658e-05,1.219e-05,0.0,0 STARLINK-3148,1 49736U 21115N   23278.43815627  .00001219  00000-0  94658-4 0  9996,2 49736  53.2167 167.5419 0001482  93.7529 266.3633 15.08834322102859,6917.898,95.438,540.788,538.738,0.0
49736.0,STARLINK-3148,PAYLOAD,2023-10-05 21:38:38,15.0883177,0.0001682,53.2159,165.4587,115.3982,244.7185,-3.2922e-05,-8.12e-06,0.0,0 STARLINK-3148,1 49736U 21115N   23278.90183930 -.00000812  00000-0 -32922-4 0  9999,2 49736  53.2159 165.4587 0001682 115.3982 244.7185 15.08831770101810,6917.906,95.438,540.934,538.607,0.0
49736.0,STARLINK-3148,PAYLOAD,2023-10-06 02:24:48,15.08831521,0.0001656,53.2165,164.5667,116.9648,243.1514,8.9544e-05,1.137e-05,0.0,0 STARLINK-3148,1 49736U 21115N   23279.10056095  .00001137  00000-0  89544-4 0  9994,2 49736  53.2165 164.5667 0001656 116.9648 243.1514 15.08831521101849,6917.906,95.438,540.917,538.626,0.0
49736.0,STARLINK-3148,PAYLOAD,2023-10-06 21:29:26,15.08837924,0.000167,53.2167,160.9982,118.5879,241.5281,0.00028698,4.282e-05,0.0,0 STARLINK-3148,1 49736U 21115N   23279.89544531  .00004282  00000-0  28698-3 0  9993,2 49736  53.2167 160.9982 0001670 118.5879 241.5281 15.08837924103074,6917.887,95.438,540.907,538.596,0.0
49736.0,STARLINK-3148,PAYLOAD,2023-10-06 23:04:49,15.08842275,0.0001233,53.2162,160.7044,91.095,269.0184,0.00039955,6.077e-05,0.0,0 STARLINK-3148,1 49736U 21115N   23279.96168545  .00006077  00000-0  39955-3 0  9990,2 49736  53.2162 160.7044 0001233  91.0950 269.0184 15.08842275101975,6917.873,95.437,540.591,538.885,0.0
49736.0,STARLINK-3148,PAYLOAD,2023-10-07 02:15:36,15.08844561,0.0001253,53.2163,160.1087,90.9584,269.1552,0.00070743,0.0001099,0.0,0 STARLINK-3148,1 49736U 21115N   23280.09416675  .00010990  00000-0  70743-3 0  9995,2 49736  53.2163 160.1087 0001253  90.9584 269.1552 15.08844561101992,6917.866,95.437,540.598,538.865,0.0
49736.0,STARLINK-3148,PAYLOAD,2023-10-07 22:55:36,15.08855749,0.0001062,53.2158,156.2437,87.0447,273.0667,0.0005657,8.731e-05,0.0,0 STARLINK-3148,1 49736U 21115N   23280.95528234  .00008731  00000-0  56570-3 0  9997,2 49736  53.2158 156.2437 0001062  87.0447 273.0667 15.08855749102121,6917.832,95.437,540.432,538.963,0.0
49736.0,STARLINK-3148,PAYLOAD,2023-10-08 00:30:59,15.08858311,0.0001084,53.2156,155.946,84.7685,275.343,0.0006124,9.477e-05,0.0,0 STARLINK-3148,1 49736U 21115N   23281.02152118  .00009477  00000-0  61240-3 0  9998,2 49736  53.2156 155.9460 0001084  84.7685 275.3430 15.08858311103248,6917.824,95.436,540.439,538.94,0.0
49736.0,STARLINK-3148,PAYLOAD,2023-10-08 21:11:00,15.08848088,0.0001464,53.217,152.0794,80.3585,279.7573,0.00020761,3.018e-05,0.0,0 STARLINK-3148,1 49736U 21115N   23281.88264190  .00003018  00000-0  20761-3 0  9994,2 49736  53.2170 152.0794 0001464  80.3585 279.7573 15.08848088102262,6917.856,95.437,540.733,538.708,0.0
49736.0,STARLINK-3148,PAYLOAD,2023-10-09 00:21:46,15.08855661,0.0001275,53.2157,151.4862,91.8167,268.2971,0.00051368,7.9e-05,0.0,0 STARLINK-3148,1 49736U 21115N   23282.01511874  .00007900  00000-0  51368-3 0  9995,2 49736  53.2157 151.4862 0001275  91.8167 268.2971 15.08855661103394,6917.833,95.437,540.58,538.815,0.0
49736.0,STARLINK-3148,PAYLOAD,2023-10-09 08:18:42,15.0884864,0.0001333,53.2161,149.9987,76.8007,283.3133,0.00033055,4.978e-05,0.0,0 STARLINK-3148,1 49736U 21115N   23282.34631958  .00004978  00000-0  33055-3 0  9992,2 49736  53.2161 149.9987 0001333  76.8007 283.3133 15.08848640103443,6917.854,95.437,540.641,538.797,0.0
49736.0,STARLINK-3148,PAYLOAD,2023-10-09 21:01:47,15.08837857,0.0001347,53.2154,147.6207,76.9458,283.1684,0.0002064,2.998e-05,0.0,0 STARLINK-3148,1 49736U 21115N   23282.87624273  .00002998  00000-0  20640-3 0  9998,2 49736  53.2154 147.6207 0001347  76.9458 283.1684 15.08837857103527,6917.887,95.438,540.684,538.82,0.0
49736.0,STARLINK-3148,PAYLOAD,2023-10-10 08:09:29,15.08841757,0.0001154,53.2143,145.5367,86.3203,273.7921,0.00042984,6.56e-05,0.0,0 STARLINK-3148,1 49736U 21115N   23283.33992267  .00006560  00000-0  42984-3 0  9995,2 49736  53.2143 145.5367 0001154  86.3203 273.7921 15.08841757102485,6917.875,95.437,540.538,538.942,0.0
